#dP2024  2 19  6  0  0.00000000      96 __u+U IGS20 EXT  IAC
## 2302 108000.00000000   900.00000000 60359 0.2500000000000
+  119   C06C07C08C09C10C11C12C13C14C16C19C20C21C22C23C24C25
+        C26C27C28C29C30C32C33C34C35C36C37C38C39C40C41C42C43
+        C44C45C46E02E03E04E05E07E08E09E10E11E12E13E14E15E18
+        E19E21E24E25E26E27E30E31E33E34E36G01G02G03G04G05G06
+        G07G08G09G10G11G12G13G14G15G16G17G18G19G20G21G22G23
+        G24G25G26G27G28G29G30G31G32J02J03J04R01R02R03R04R05
+        R07R08R09R11R12R13R14R15R16R17R18R19R20R21R22R24R26
++         9  9  9  9  9  8  9  8  9  9  9  9  8  8  9 10  9
++         8 10  9  8  8  8  8  8  8  7  9  9  9 10  8  9  8
++         9  9  8  8  8  9  8  8  8  8  8  8  8  8  8  8  8
++         8  8  7  7  8  7  8  8  8  7  8  7  7  7 10  8  8
++         8  8  8  8  8  8  7  9  7  8  8  7  7  8  8  8  8
++         7  8  7  8  7  8  8  7  7 10  9  0  9  9  8  9  7
++         8  8  9  8  8  9  7  9  8 10  8  9 10  8  8  9  8
%c M  cc GPS ccc cccc cccc cccc cccc ccccc ccccc ccccc ccccc
%c cc cc ccc ccc cccc cccc cccc cccc ccccc ccccc ccccc ccccc
%f  0.0000000  0.000000000  0.00000000000  0.000000000000000
%f  0.0000000  0.000000000  0.00000000000  0.000000000000000
%i    0    0    0    0      0      0      0      0         0
%i    0    0    0    0      0      0      0      0         0
/* IAC                                ULTRA-RAPID PREDICTION
/* S/V CLOCKS ARE ALIGNED TO GNSS TIME                      
/* G:C1WC2W R:C1PC2P E:C1XC5X C:C2IC6I J:C1CC2S             
/* PCV:IGS20_2290 OL/AL:FES2004  NONE     YN ORB:CoN CLK:CoN
*  2024 02 20  5 45  0.00000000
PC06 -14706.695006  39125.810182   4236.758763    121.888386
PC07  -3191.329984  31654.811884  27830.926597   -830.455636
PC08 -15747.010386  20613.231467 -33294.886608     24.428695
PC09  -9250.608342  38679.338799  13449.523948   -514.532022
PC10   4243.775133  34668.409272  24300.574314     77.698312
PC11  12697.792627  12504.631830 -21405.547097    419.924872
PC12   2383.078621  26551.439509  -8202.770416    765.691855
PC13  -6012.199008  22378.466846 -35088.749274    418.897427
PC14  23643.281923  14683.424974   2455.755200    230.466941
PC16 -16154.966411  38700.987678   1984.388979   -350.293875
PC19 -24252.204547  -7856.055750 -11294.655449   -925.208030
PC20 -20112.374352 -18608.810800   5212.770597   -180.282753
PC21   3353.612856  19068.623071 -20087.871101   -961.847407
PC22 -14672.254511   8080.105319 -22313.540218   -103.155159
PC23  23854.709330 -13976.411900  -3775.654869   -779.995841
PC24  11084.896980  12617.482031  22261.299920    901.024231
PC25  24768.290475  -1951.999435  12672.235591    330.528539
PC26  -8061.627649  18999.029175  18776.792227   -251.735710
PC27   3064.517848 -27743.662170   -327.349649    273.737210
PC28  12617.548399 -19806.546632 -15072.584334    208.335379
PC29 -15946.853947  -1822.094858  22823.565927    244.205347
PC30  -9232.511485 -21623.943647  15042.366759    -27.422493
PC32  -3348.519401 -19010.591930  20166.124243   -570.345786
PC33  24353.045362   7754.535923  11235.526923   -950.206647
PC34  10109.123846  20381.174259 -16155.125476    373.249554
PC35 -11971.910117  20135.607925  15122.224533    429.462782
PC36 -24648.024262   1018.109215 -13043.670785     -8.585556
PC37   8880.698618 -18835.928989 -18562.273744   -937.560322
PC38 -23205.580094  21762.591653 -27679.364310    137.940455
PC39 -18113.247259  37520.334255  -5557.804685     -7.207712
PC40  -6567.924176  27091.651226  31708.823836    -57.280406
PC41  15378.937496  -7516.295868  22100.128356   -893.387712
PC42  19231.509402  19098.771842  -6662.211225   -452.818915
PC43  15967.386388   2896.906180 -22710.651012     61.139972
PC44  -2078.041390  27805.679899    456.700660    389.914301
PC45 -23828.172121  13996.005455   3967.999242    -71.214967
PC46 -11985.604908 -11971.974760 -22194.224064   -125.294917
PE02  22155.911814  13514.302552  14205.185076    104.872243
PE03  16453.781851  22318.422358  10373.410128    -95.022134
PE04 -18440.151923  -3248.633743 -22916.838372   -331.480398
PE05   4895.667384  28066.134863  -8025.692111   4721.745594
PE07   9887.249666 -17093.290802  22055.294900   -104.720210
PE08  18458.814253   4085.827226  22780.604081   -226.698295
PE09  -9820.491334  16960.263470 -22182.521455   -342.529096
PE10 -22205.935629  15595.983350  11821.596618   -603.326581
PE11 -19368.047782  22306.081133   1682.280045   3235.740106
PE12 -21530.682016   7153.579525  18999.833539   -914.113842
PE13  19643.015531 -22027.266826  -2360.558868    -20.243373
PE14  19758.054083  21801.544615 -13732.542593     44.505785
PE15  21347.207681  -6718.451620 -19370.604654    -86.817178
PE18 -15286.861592 -12805.494311  12503.369776    347.153984
PE19 -15376.363426 -23847.200684  -8426.920993   -580.534194
PE21  -2977.250152 -17197.610456 -23916.865415   -579.939914
PE24 -19211.208594  10779.602553  19760.252333   -608.177391
PE25   2502.368494  17165.606708  23979.180115      1.126039
PE26   5872.294092 -24100.646627  16165.096609    373.988926
PE27  18784.144497 -11035.590291 -20039.251140   -279.220909
PE30  29240.898987   1781.800575  -4195.822612    -15.530113
PE31 -29235.588587  -1568.790023   4384.568381    -16.414229
PE33 -10075.658178 -12794.584064  24724.577314      7.865025
PE34  10537.741161  12292.704904 -24778.278958    -95.636463
PE36  -6492.389009  24203.396974 -15735.244694   -188.435679
PG01 -10597.378752  22528.767249  -9105.184205    170.293402
PG02 -14932.798126  21789.472339    907.012744   -482.662359
PG03 -10785.722596  12551.001601 -20890.393720    204.486904
PG04  -4431.501053  20506.422384 -16189.950059    296.100943
PG05  22110.531750  -6900.979919  12906.278593   -162.482012
PG06  14681.322043   4379.550044 -21641.006217    400.019768
PG07    384.530446  20051.619784  17664.077662    -66.193132
PG08 -10067.421708  13175.932125  20557.421555   -167.902999
PG09   6727.185508  25092.594765  -5464.150634     98.159552
PG10 -21417.759919 -10929.834515  11839.791647      1.052807
PG11  20184.812663  -6738.089537 -15839.431663   -581.793966
PG12  12204.764160 -12056.487428 -20547.035306   -479.729839
PG13  14522.197814  -3300.611310  21790.913544    627.166585
PG14  18177.203282  13365.674703  14186.519563    330.429851
PG15   8595.324215 -14469.397290  20013.548832    129.558914
PG16 -25443.486300    -45.689708   8060.854930   -358.723467
PG17  12618.120026  21997.622270  -7200.707501    716.414171
PG18   -387.638094 -19235.817591  18242.289304   -559.460335
PG19  15558.860903  15227.857279 -15647.833810    443.161267
PG20  26440.475499  -1260.418871    371.593847    386.830812
PG21 -17102.376276  18812.284655   6072.083068    134.283957
PG22  22787.392123  11000.998380   7988.402719     28.312200
PG23 -10269.787670 -14545.278044  19792.910318    160.012396
PG24  15151.664586 -21429.799828   1750.702924   -434.608196
PG25   -260.669603 -15698.984380 -21776.412958    489.121434
PG26 -26261.599807  -4048.176638  -3309.660203    188.306876
PG27 -15963.140974   -398.003696  21017.396451     -5.574991
PG28 -13488.228716  -7224.931345 -21728.436050   -137.108816
PG29  -3252.915835 -25412.286704  -6851.941808   -606.611107
PG30   9833.896396  12792.305770  21197.659571   -430.234442
PG31 -18997.595562   2258.380152 -18797.749178   -227.822978
PG32 -15525.829735 -19155.372485  -9938.629323   -612.548854
PJ02 -29814.483860  21335.392401  25920.704409     -2.145193
PJ03 -31912.862678  26354.092458  13295.913771     -0.227973
PJ04      0.000000      0.000000      0.000000     50.839996
PR01  -3749.688676  11310.576249 -22549.532659     77.646968
PR02  10398.842988  19459.982373 -12691.708685    -22.506421
PR03  18945.361006  16454.335888   4458.480200     94.846248
PR04  16640.384359   4841.327924  18744.591916    224.201594
PR05   5596.823340  -9561.605296  22993.918497    127.194451
PR07 -19075.526277 -16154.671307  -5169.723572     76.209772
PR08 -16660.988593  -4543.704505 -18723.420667    -74.493517
PR09   -589.607710 -11563.611828 -22719.864022    170.985565
PR11 -24721.569779   4493.031758  -4343.628679     33.745736
PR12 -17519.342669  11714.202624  14399.723346     36.946634
PR13  -2191.633603  11812.080635  22481.218344    -44.542458
PR14  17562.315868   4341.651486  17995.168576     26.082244
PR15  24846.624124  -5032.951350   2856.013249     82.038389
PR16  17726.721870 -11657.498259 -14183.161999     23.416157
PR17   7191.772870  11036.079689 -21840.144730     62.696967
PR18  12077.326859  -6490.429951 -21506.105915    128.290467
PR19  11914.902165 -19319.616817 -11640.221341   -266.480114
PR20   3547.489776 -23525.326720   9275.935463   -108.549726
PR21  -7163.567767 -10779.481783  21978.654729    -78.396679
PR22 -12760.934871   7056.230955  20952.448654    108.975630
PR24  -2085.389454  23503.740956  -9682.021637    -44.644653
PR26 -17072.886906  -5190.942334 -18192.816497   -197.491171
EOF
